SCD 1                   
1 22490U 93009B   26193.84354434  .00000288  00000+0  28258-4 0  9990
2 22490  24.9703  49.1612 0042016  49.6861  48.5370 14.46128026764833
TECHSAT 1B (GO-32)      
1 25397U 98043D   26193.56255600  .00000019  00000+0  28421-4 0  9990
2 25397  99.0083 186.9627 0002120 118.5783 241.5609 14.24433030454941
SCD 2                   
1 25504U 98060A   26193.65830174  .00000281  00000+0  27648-4 0  9995
2 25504  24.9951 275.0827 0016922  33.0131 119.0684 14.45534341464018
DLR-TUBSAT              
1 25757U 99029B   26193.57610352  .00000016  00000+0  15907-4 0  9997
2 25757  98.6709 189.9170 0012960 273.4248  86.5463 14.52432938436938
TERRA                   
1 25994U 99068A   26193.83347969  .00000213  00000+0  52367-4 0  9993
2 25994  97.9443 242.3611 0003317 127.4066 284.6397 14.61122648413356
MAROC-TUBSAT            
1 27004U 01056D   26193.48466315 -.00000022  00000+0  27337-4 0  9993
2 27004  99.8095  10.8225 0020620  78.7772 341.6089 13.70263481229651
AQUA                    
1 27424U 02022A   26193.91276689  .00000389  00000+0  87043-4 0  9999
2 27424  98.4294 163.7125 0000864 108.8614 267.3759 14.62195196287031
SHIYAN-1 (SY-1)         
1 28220U 04012A   26193.75257146  .00009576  00000+0  28983-3 0  9998
2 28220  97.8691 273.4927 0004063 286.7704  73.3092 15.34414303215018
AURA                    
1 28376U 04026A   26193.86794610  .00000375  00000+0  85561-4 0  9993
2 28376  98.3429 150.5363 0001283  92.1543 267.9804 14.61365874169966
IRS-P5 (CARTOSAT-1)     
1 28649U 05017A   26193.64608080  .00000565  00000+0  62269-4 0  9999
2 28649  97.5306 215.5555 0001526  56.0467 304.0897 14.91113249147616
SINAH 1                 
1 28893U 05043D   26193.81792919  .00000140  00000+0  36014-4 0  9991
2 28893  98.2890 328.2952 0014226 191.0028 169.0865 14.64174642104273
RESURS-DK 1             
1 29228U 06021A   26193.61646933  .00000958  00000+0  59778-4 0  9992
2 29228  69.9310 273.7227 0006968 274.0231  86.0139 15.13313618106423
ARIRANG-2 (KOMPSAT-2)   
1 29268U 06031A   26193.85265102  .00000482  00000+0  98992-4 0  9991
2 29268  97.8313  17.0588 0014472 358.3809 113.4853 14.64676178 65234
LAPAN-TUBSAT            
1 29709U 07001A   26193.84258624  .00000613  00000+0  76708-4 0  9996
2 29709  98.1351 193.6459 0013626 100.2712 260.0040 14.85977396 54969
HAIYANG-1B              
1 31113U 07010A   26193.87538571  .00000033  00000+0  28471-4 0  9993
2 31113  98.3513 174.7264 0014568 122.2040 238.0558 14.31032976  4311
COSMO-SKYMED 1          
1 31598U 07023A   26193.79942435  .00001318  00000+0  11913-3 0  9992
2 31598  97.8844  25.8719 0001224 102.8755 257.2603 14.97212324 33621
TERRASAR-X              
1 31698U 07026A   26188.47915537  .00000240  00000+0  14624-4 0  9994
2 31698  97.4461 195.8972 0001878  86.9540 273.1909 15.19153986 56300
WORLDVIEW-1 (WV-1)      
1 32060U 07041A   26193.76092997  .00003661  00000+0  15166-3 0  9990
2 32060  97.3900 313.1448 0001300 218.1950 141.9196 15.24542474 46778
YAOGAN-3                
1 32289U 07055A   26193.83359083  .00001372  00000+0  14491-3 0  9995
2 32289  97.8150 223.4575 0001576  82.8475 277.2922 14.90875439  9692
COSMO-SKYMED 2          
1 32376U 07059A   26193.81503852  .00000187  00000+0  30033-4 0  9993
2 32376  97.8892  17.0420 0001430  93.7470 266.3907 14.82149354  5805
RADARSAT-2              
1 32382U 07061A   26193.85706468 -.00000077  00000+0 -12835-4 0  9995
2 32382  98.5783 200.4226 0001338  84.1310 276.0025 14.29982486969625
CARTOSAT-2A             
1 32783U 08021A   26193.81841295  .00000125  00000+0  23519-4 0  9994
2 32783  97.7627 241.6504 0012688  34.3719 325.8311 14.79273393982591
HUANJING 1A (HJ-1A)     
1 33320U 08041A   26193.85569309  .00001141  00000+0  14266-3 0  9998
2 33320  97.6692 178.7031 0020492  56.7469 303.5705 14.84047036962213
HUANJING 1B (HJ-1B)     
1 33321U 08041B   26193.90400649  .00000065  00000+0  14092-4 0  9998
2 33321  97.6528 181.8432 0037897  98.3989 262.1524 14.83360658962225
GEOEYE 1                
1 33331U 08042A   26193.77019852  .00000203  00000+0  47134-4 0  9994
2 33331  98.1328 267.3945 0004115 354.9694   5.1467 14.64648277953899
THEOS                   
1 33396U 08049A   26193.89656608 -.00000263  00000+0 -10342-3 0  9999
2 33396  98.5567 250.3436 0001145  86.6596 273.4711 14.20135647921617
COSMO-SKYMED 3          
1 33412U 08054A   26193.90529330  .00001422  00000+0  98861-4 0  9996
2 33412  97.8258  52.9023 0015597 173.6051 186.5378 15.07102611960811
YAOGAN-4                
1 33446U 08061A   26193.80255351  .00000518  00000+0  69844-4 0  9993
2 33446  97.9304 127.1245 0014044 353.5413   6.5617 14.83248757949469
GOSAT (IBUKI)           
1 33492U 09002A   26193.77485860 -.00000053  00000+0 -79182-6 0  9990
2 33492  98.0928 304.5407 0001967 136.9039 223.2320 14.67536633935214
DEIMOS-1                
1 35681U 09041A   26193.89257736  .00000547  00000+0  87945-4 0  9997
2 35681  97.7426 350.0100 0002747  95.0887 265.0636 14.75264160910673
DUBAISAT-1              
1 35682U 09041B   26193.79699012  .00000424  00000+0  70351-4 0  9991
2 35682  98.0080 326.7788 0010097 356.4951   3.6186 14.75164613908876
